OBJECT_NAME,OBJECT_ID,EPOCH,MEAN_MOTION,ECCENTRICITY,INCLINATION,RA_OF_ASC_NODE,ARG_OF_PERICENTER,MEAN_ANOMALY,EPHEMERIS_TYPE,CLASSIFICATION_TYPE,NORAD_CAT_ID,ELEMENT_SET_NO,REV_AT_EPOCH,BSTAR,MEAN_MOTION_DOT,MEAN_MOTION_DDOT
ONEWEB-0275,2021-060AC,2026-06-20T04:38:22.409088,13.16594494,.00019649,87.9095,228.1788,96.3596,263.7759,0,U,48993,999,23995,-.17591126E-4,.6E-7,0
ONEWEB-0276,2021-060AD,2026-06-19T16:40:11.675712,13.16594534,.00019453,87.9097,228.2771,94.4593,265.6760,0,U,48994,999,23990,.28128314E-3,.12E-5,0
ONEWEB-0277,2021-060AE,2026-06-19T16:58:26.957280,13.16593915,.00018899,87.9091,228.2834,101.1702,258.9641,0,U,48995,999,23989,.13762059E-3,.65E-6,0
ONEWEB-0278,2021-060AF,2026-06-20T05:30:47.210976,13.16593154,.00022559,87.9097,228.1702,98.1454,261.9933,0,U,48996,999,24009,.89452219E-4,.47E-6,0
ONEWEB-0279,2021-060AG,2026-06-19T16:56:09.393792,13.16594915,.00017813,87.9098,228.2722,98.2676,261.8657,0,U,48997,999,23995,.1057766E-3,.53E-6,0
ONEWEB-0280,2021-060AH,2026-06-19T15:28:22.505088,13.16593832,.00021917,87.9095,228.2887,106.3544,253.7829,0,U,48998,999,23988,-.18352147E-3,-.57E-6,0
ONEWEB-0281,2021-060AJ,2026-06-20T04:22:24.379968,13.16595375,.00021237,87.9097,228.1770,97.1923,262.9449,0,U,48999,999,24002,-.88469548E-4,-.21E-6,0
ONEWEB-0282,2021-060AK,2026-06-20T05:05:42.736416,13.16592606,.00020102,87.9091,228.1795,101.4814,258.6543,0,U,49000,999,24000,.17406063E-4,.2E-6,0
ONEWEB-0283,2021-060AL,2026-06-20T04:49:45.836544,13.16594543,.00018939,87.9092,228.1810,98.0514,262.0832,0,U,49001,999,24001,-.17845256E-3,-.55E-6,0
ONEWEB-0284,2021-060AM,2026-06-20T04:40:39.072288,13.16594547,.00023106,87.9093,228.1757,103.5428,256.5960,0,U,49002,999,23999,.4613752E-4,.3E-6,0
ONEWEB-0285,2021-075A,2026-06-19T22:58:28.750080,13.12443341,.00017843,87.8945,350.1109,93.3661,266.7672,0,U,49075,999,23557,.9009471E-3,.337E-5,0
ONEWEB-0286,2021-075B,2026-06-19T22:32:40.162272,13.12444128,.00019832,87.8936,350.1310,86.5919,273.5436,0,U,49076,999,23492,.94163905E-3,.351E-5,0
ONEWEB-0287,2021-075C,2026-06-20T06:43:14.924640,13.17648949,.00022615,87.9131,5.2504,84.2419,275.8971,0,U,49077,999,23403,-.1682957E-3,-.52E-6,0
ONEWEB-0288,2021-075D,2026-06-19T21:58:42.096000,13.12444065,.00020364,87.8947,350.1123,91.8282,268.3080,0,U,49078,999,23554,-.11042976E-2,-.385E-5,0
ONEWEB-0289,2021-075E,2026-06-20T00:21:32.613984,13.17650577,.00019291,87.9138,5.3200,100.7628,259.3721,0,U,49079,999,23457,.1267298E-3,.62E-6,0
ONEWEB-0290,2021-075F,2026-06-19T23:42:52.773984,13.17649052,.00018773,87.9140,5.2975,104.3255,255.8085,0,U,49080,999,23398,.86863736E-4,.47E-6,0
ONEWEB-0291,2021-075G,2026-06-20T06:38:23.980416,13.17649241,.00022208,87.9131,5.2475,92.3516,267.7870,0,U,49081,999,23401,.36626851E-4,.27E-6,0
ONEWEB-0293,2021-075H,2026-06-19T22:08:05.883648,13.17649003,.00018943,87.9130,5.3211,93.0177,267.1171,0,U,49082,999,23399,-.66115795E-4,-.13E-6,0
ONEWEB-0294,2021-075J,2026-06-19T22:08:27.506112,13.12445475,.00018991,87.8948,350.1147,102.1535,257.9807,0,U,49083,999,23493,-.58219177E-3,-.197E-5,0
ONEWEB-0295,2021-075K,2026-06-19T22:06:53.340480,13.17648785,.00021797,87.9130,5.3254,89.0345,271.1037,0,U,49084,999,23395,-.92072106E-4,-.23E-6,0
ONEWEB-0296,2021-075L,2026-06-20T04:58:18.852960,13.12440750,.00021468,87.8952,350.0656,92.8942,267.2432,0,U,49085,999,23497,-.86576735E-3,-.299E-5,0
ONEWEB-0297,2021-075M,2026-06-19T22:23:05.925408,13.12445367,.00019088,87.8939,350.1308,90.4423,269.6924,0,U,49086,999,23554,.34650998E-3,.137E-5,0
ONEWEB-0298,2021-075N,2026-06-19T22:13:09.859584,13.17648606,.00018327,87.9132,5.3225,84.4282,275.7058,0,U,49087,999,23398,-.28909207E-4,.2E-7,0
ONEWEB-0299,2021-075P,2026-06-19T22:15:23.467680,13.17650547,.00020236,87.9141,5.3027,86.0144,274.1219,0,U,49088,999,23396,.10509551E-3,.54E-6,0
ONEWEB-0300,2021-075Q,2026-06-19T22:12:06.587136,13.12443891,.00017521,87.8950,350.1119,79.3623,280.7703,0,U,49089,999,23556,-.100709E-2,-.35E-5,0
ONEWEB-0301,2021-075R,2026-06-20T05:08:03.698880,13.12441018,.00016365,87.8944,350.0530,82.6466,277.4849,0,U,49090,999,23496,-.12210635E-2,-.427E-5,0
ONEWEB-0302,2021-075S,2026-06-20T04:48:33.464448,13.12443046,.00019791,87.8949,350.0671,99.6726,260.4626,0,U,49091,999,23494,-.61392073E-4,-.9E-7,0
ONEWEB-0304,2021-075T,2026-06-19T23:28:17.256864,13.17649645,.00020054,87.9132,5.3149,87.8507,272.2854,0,U,49092,999,23394,.16197614E-3,.76E-6,0
ONEWEB-0305,2021-075U,2026-06-19T23:18:34.260768,13.17649659,.00022254,87.9139,5.3008,85.3877,274.7509,0,U,49093,999,23397,.5257962E-4,.33E-6,0
ONEWEB-0308,2021-075V,2026-06-20T04:38:48.012864,13.12442446,.00017884,87.8948,350.0608,91.3361,268.7972,0,U,49094,999,23495,.4057244E-3,.159E-5,0
