ONEWEB-0275             
1 48993U 21060AC  26171.19331492  .00000006  00000+0 -17591-4 0  9994
2 48993  87.9095 228.1788 0001964  96.3596 263.7759 13.16594494239950
ONEWEB-0276             
1 48994U 21060AD  26170.69457958  .00000120  00000+0  28128-3 0  9998
2 48994  87.9097 228.2771 0001945  94.4593 265.6760 13.16594534239904
ONEWEB-0277             
1 48995U 21060AE  26170.70725645  .00000065  00000+0  13762-3 0  9998
2 48995  87.9091 228.2834 0001889 101.1702 258.9641 13.16593915239897
ONEWEB-0278             
1 48996U 21060AF  26171.22971309  .00000047  00000+0  89452-4 0  9997
2 48996  87.9097 228.1702 0002255  98.1454 261.9933 13.16593154240091
ONEWEB-0279             
1 48997U 21060AG  26170.70566428  .00000053  00000+0  10578-3 0  9991
2 48997  87.9098 228.2722 0001781  98.2676 261.8657 13.16594915239957
ONEWEB-0280             
1 48998U 21060AH  26170.64470492 -.00000057  00000+0 -18352-3 0  9994
2 48998  87.9095 228.2887 0002191 106.3544 253.7829 13.16593832239888
ONEWEB-0281             
1 48999U 21060AJ  26171.18222662 -.00000021  00000+0 -88470-4 0  9999
2 48999  87.9097 228.1770 0002123  97.1923 262.9449 13.16595375240026
ONEWEB-0282             
1 49000U 21060AK  26171.21230019  .00000020  00000+0  17406-4 0  9990
2 49000  87.9091 228.1795 0002010 101.4814 258.6543 13.16592606240003
ONEWEB-0283             
1 49001U 21060AL  26171.20122496 -.00000055  00000+0 -17845-3 0  9995
2 49001  87.9092 228.1810 0001893  98.0514 262.0832 13.16594543240012
ONEWEB-0284             
1 49002U 21060AM  26171.19489667  .00000030  00000+0  46138-4 0  9999
2 49002  87.9093 228.1757 0002310 103.5428 256.5960 13.16594547239994
ONEWEB-0285             
1 49075U 21075A   26170.95727720  .00000337  00000+0  90095-3 0  9993
2 49075  87.8945 350.1109 0001784  93.3661 266.7672 13.12443341235579
ONEWEB-0286             
1 49076U 21075B   26170.93935373  .00000351  00000+0  94164-3 0  9994
2 49076  87.8936 350.1310 0001983  86.5919 273.5436 13.12444128234921
ONEWEB-0287             
1 49077U 21075C   26171.28003385 -.00000052  00000+0 -16830-3 0  9997
2 49077  87.9131   5.2504 0002261  84.2419 275.8971 13.17648949234036
ONEWEB-0288             
1 49078U 21075D   26170.91576500 -.00000385  00000+0 -11043-2 0  9990
2 49078  87.8947 350.1123 0002036  91.8282 268.3080 13.12444065235545
ONEWEB-0289             
1 49079U 21075E   26171.01496081  .00000062  00000+0  12673-3 0  9999
2 49079  87.9138   5.3200 0001929 100.7628 259.3721 13.17650577234574
ONEWEB-0290             
1 49080U 21075F   26170.98811081  .00000047  00000+0  86864-4 0  9994
2 49080  87.9140   5.2975 0001877 104.3255 255.8085 13.17649052233989
ONEWEB-0291             
1 49081U 21075G   26171.27666644  .00000027  00000+0  36627-4 0  9991
2 49081  87.9131   5.2475 0002220  92.3516 267.7870 13.17649241234013
ONEWEB-0293             
1 49082U 21075H   26170.92229032 -.00000013  00000+0 -66116-4 0  9992
2 49082  87.9130   5.3211 0001894  93.0177 267.1171 13.17649003233999
ONEWEB-0294             
1 49083U 21075J   26170.92254058 -.00000197  00000+0 -58219-3 0  9996
2 49083  87.8948 350.1147 0001899 102.1535 257.9807 13.12445475234930
ONEWEB-0295             
1 49084U 21075K   26170.92145070 -.00000023  00000+0 -92072-4 0  9994
2 49084  87.9130   5.3254 0002179  89.0345 271.1037 13.17648785233955
ONEWEB-0296             
1 49085U 21075L   26171.20716265 -.00000299  00000+0 -86577-3 0  9994
2 49085  87.8952 350.0656 0002146  92.8942 267.2432 13.12440750234977
ONEWEB-0297             
1 49086U 21075M   26170.93270747  .00000137  00000+0  34651-3 0  9999
2 49086  87.8939 350.1308 0001908  90.4423 269.6924 13.12445367235546
ONEWEB-0298             
1 49087U 21075N   26170.92580856  .00000002  00000+0 -28909-4 0  9996
2 49087  87.9132   5.3225 0001832  84.4282 275.7058 13.17648606233980
ONEWEB-0299             
1 49088U 21075P   26170.92735495  .00000054  00000+0  10510-3 0  9992
2 49088  87.9141   5.3027 0002023  86.0144 274.1219 13.17650547233966
ONEWEB-0300             
1 49089U 21075Q   26170.92507624 -.00000350  00000+0 -10071-2 0  9996
2 49089  87.8950 350.1119 0001752  79.3623 280.7703 13.12443891235568
ONEWEB-0301             
1 49090U 21075R   26171.21393170 -.00000427  00000+0 -12211-2 0  9993
2 49090  87.8944 350.0530 0001636  82.6466 277.4849 13.12441018234968
ONEWEB-0302             
1 49091U 21075S   26171.20038732 -.00000009  00000+0 -61392-4 0  9995
2 49091  87.8949 350.0671 0001979  99.6726 260.4626 13.12443046234943
ONEWEB-0304             
1 49092U 21075T   26170.97797751  .00000076  00000+0  16198-3 0  9997
2 49092  87.9132   5.3149 0002005  87.8507 272.2854 13.17649645233947
ONEWEB-0305             
1 49093U 21075U   26170.97122987  .00000033  00000+0  52580-4 0  9990
2 49093  87.9139   5.3008 0002225  85.3877 274.7509 13.17649659233978
ONEWEB-0308             
1 49094U 21075V   26171.19361126  .00000159  00000+0  40572-3 0  9992
2 49094  87.8948 350.0608 0001788  91.3361 268.7972 13.12442446234956
